OBJECT_NAME,OBJECT_ID,EPOCH,MEAN_MOTION,ECCENTRICITY,INCLINATION,RA_OF_ASC_NODE,ARG_OF_PERICENTER,MEAN_ANOMALY,EPHEMERIS_TYPE,CLASSIFICATION_TYPE,NORAD_CAT_ID,ELEMENT_SET_NO,REV_AT_EPOCH,BSTAR,MEAN_MOTION_DOT,MEAN_MOTION_DDOT
SAR-LUPE 2,2007-030A,2026-07-09T17:20:47.157792,15.53409239,.0004319,98.1048,298.0124,223.3219,136.7693,0,U,31797,999,6043,.3051E-3,.19219E-3,0
SAPPHIRE,2013-009C,2026-07-09T19:39:36.971424,14.35246602,.0011248,98.4271,9.7386,175.5034,184.6255,0,U,39088,999,69982,.37189E-4,.64E-6,0
PRAETORIAN SDA_602,2025-203A,2026-07-09T17:21:57.813120,13.83887707,.0006917,81.3037,349.9005,130.1986,229.9777,0,U,65565,999,4181,.41979E-4,.59E-6,0
PRAETORIAN SDA_603,2025-203B,2026-07-09T16:19:00.515712,13.83961323,.0010593,81.3044,349.8629,128.7709,231.4395,0,U,65566,999,4181,.12682E-3,.153E-5,0
PRAETORIAN SDA_604,2025-203C,2026-07-09T17:07:52.267296,13.83049851,.0006404,81.3059,350.2786,133.9259,226.2427,0,U,65567,999,4179,.41258E-4,.57E-6,0
PRAETORIAN SDA_605,2025-203D,2026-07-09T16:10:40.676160,13.83199817,.0009188,81.3025,349.9593,126.4398,233.7606,0,U,65568,999,4180,.38271E-4,.54E-6,0
PRAETORIAN SDA_606,2025-203E,2026-07-09T17:33:29.528064,13.83199865,.0007027,81.3061,350.1421,128.6349,231.5438,0,U,65569,999,4180,.4092E-4,.57E-6,0
PRAETORIAN SDA_607,2025-203F,2026-07-09T17:22:46.782048,13.83757866,.0009802,81.3044,349.7758,128.5911,231.6125,0,U,65570,999,4182,.16381E-3,.193E-5,0
PRAETORIAN SDA_608,2025-203G,2026-07-09T16:57:57.760992,13.83819113,.0006902,81.3014,349.9569,132.9647,227.2090,0,U,65571,999,4180,.41677E-4,.58E-6,0
PRAETORIAN SDA_609,2025-203H,2026-07-08T21:50:53.385504,13.84211204,.00076994,81.3049,350.6739,129.6054,230.5784,0,U,65572,999,4170,.19679529E-3,.231E-5,0
PRAETORIAN SDA_610,2025-203J,2026-07-08T21:24:36.728928,13.83769338,.00076481,81.3015,350.6711,134.1093,226.0694,0,U,65573,999,4169,.29957645E-4,.45E-6,0
PRAETORIAN SDA_611,2025-203K,2026-07-09T16:41:49.255008,13.83310970,.0006429,81.3017,350.1095,136.4064,223.7602,0,U,65574,999,4179,.33945E-3,.385E-5,0
PRAETORIAN SDA_612,2025-203L,2026-07-08T22:26:10.271040,13.85040554,.00101588,81.3035,350.3454,130.2527,229.9520,0,U,65575,999,4172,.16418626E-3,.198E-5,0
PRAETORIAN SDA_613,2025-203M,2026-07-09T17:04:16.326048,13.82767287,.0006632,81.3007,350.1087,127.4162,232.7599,0,U,65576,999,4179,.35966E-4,.51E-6,0
PRAETORIAN SDA_614,2025-203N,2026-07-09T17:20:59.455104,13.84778316,.0008093,81.3020,349.6977,126.0989,234.0919,0,U,65577,999,4183,.24425E-4,.39E-6,0
PRAETORIAN SDA_615,2025-203P,2026-07-08T21:50:55.431456,13.84438157,.00099098,81.3024,350.4291,128.9535,231.2506,0,U,65578,999,4171,.20273035E-3,.239E-5,0
PRAETORIAN SDA_616,2025-203Q,2026-07-09T16:41:39.319008,13.83269945,.0006324,81.3065,350.2694,134.4038,225.7637,0,U,65579,999,4179,.11495E-3,.138E-5,0
PRAETORIAN SDA_617,2025-203R,2026-07-09T17:15:31.931712,13.83151745,.0008352,81.3045,350.0763,126.5508,233.6418,0,U,65580,999,4180,.39089E-4,.55E-6,0
PRAETORIAN SDA_618,2025-203S,2026-07-09T16:07:27.520320,13.84225316,.0010702,81.3027,349.6536,130.4634,229.7458,0,U,65581,999,4182,.96255E-4,.119E-5,0
PRAETORIAN SDA_619,2025-203T,2026-07-09T17:13:19.171200,13.83805442,.0009136,81.3050,349.9347,127.6660,232.5326,0,U,65582,999,4244,.61729E-4,.8E-6,0
PRAETORIAN SDA_620,2025-203U,2026-07-09T18:00:27.082080,13.83207493,.0008517,81.3039,349.9321,124.8355,235.3604,0,U,65583,999,4181,.11889E-3,.142E-5,0
PRAETORIAN SDA_621,2025-203V,2026-07-09T17:15:57.213216,13.83803646,.0008381,81.3027,349.8663,121.7631,238.4343,0,U,65584,999,4181,.39845E-4,.56E-6,0
PRAETORIAN SDA_601,2025-203W,2026-07-09T16:48:30.877632,13.83168932,.000622,81.3044,350.2080,138.0329,222.1305,0,U,65585,999,4179,.33038E-3,.374E-5,0
VICTUS HAZE PUMA,2026-142A,2026-07-09T20:24:03.652992,15.20823924,.002513,97.4474,88.2154,285.7775,74.0690,0,U,69646,999,311,.12552E-3,.272E-4,0
